[{"OBJECT_NAME":"SAUDISAT 5A","OBJECT_ID":"2018-102A","EPOCH":"2026-03-09T23:40:00.596928","MEAN_MOTION":15.26941021,"ECCENTRICITY":0.00113651,"INCLINATION":97.3185,"RA_OF_ASC_NODE":132.4981,"ARG_OF_PERICENTER":121.7113,"MEAN_ANOMALY":238.5235,"EPHEMERIS_TYPE":0,"CLASSIFICATION_TYPE":"U","NORAD_CAT_ID":43831,"ELEMENT_SET_NO":999,"REV_AT_EPOCH":40053,"BSTAR":0.00030305233,"MEAN_MOTION_DOT":7.96e-5,"MEAN_MOTION_DDOT":0},{"OBJECT_NAME":"STARLINK-32448","OBJECT_ID":"2024-229Q","EPOCH":"2026-03-09T13:10:22.411200","MEAN_MOTION":15.27594975,"ECCENTRICITY":0.0001366,"INCLINATION":43.0029,"RA_OF_ASC_NODE":271.1821,"ARG_OF_PERICENTER":264.9409,"MEAN_ANOMALY":95.1286,"EPHEMERIS_TYPE":0,"CLASSIFICATION_TYPE":"U","NORAD_CAT_ID":62206,"ELEMENT_SET_NO":999,"REV_AT_EPOCH":7054,"BSTAR":0.0012129,"MEAN_MOTION_DOT":0.00033279,"MEAN_MOTION_DDOT":0}]
